STARLINK-36847          
1 67910U 26036G   26079.58335648 -.00071747  00000+0 -12279-2 0  9996
2 67910  43.0002 184.8043 0001313 305.4852 138.6095 15.50588991  5397
STARLINK-36736          
1 67911U 26036H   26079.50001157 -.01911517  00000+0 -39405-1 0  9992
2 67911  42.9995 184.7334 0001128 286.3327 278.3522 15.48265097  5389
STARLINK-36676          
1 67912U 26036J   26079.58335648 -.00072472  00000+0 -12405-2 0  9995
2 67912  43.0003 184.3696 0001793 265.2529 354.5796 15.50589481  5397
STARLINK-36690          
1 67913U 26036K   26079.58335648 -.00000666  00000+0 -55371-5 0  9994
2 67913  43.0004 184.3563 0001399 283.3724 341.8747 15.50575994  5391
STARLINK-36724          
1 67914U 26036L   26079.50001157  .00035162  00000+0  60353-3 0  9993
2 67914  43.0003 184.7960 0001291 287.0992 251.3456 15.50530209  5386
STARLINK-36723          
1 67915U 26036M   26079.50001157 -.00794102  00000+0 -14593-1 0  9995
2 67915  42.9999 184.7181 0001484 281.3986 289.0948 15.50852891  5386
STARLINK-36721          
1 67916U 26036N   26079.58335648 -.01943438  00000+0 -37453-1 0  9998
2 67916  43.0001 184.2062 0001566 266.4130  59.3637 15.50208070  5390
STARLINK-36722          
1 67917U 26036P   26079.50001157 -.01376478  00000+0 -25764-1 0  9992
2 67917  42.9999 184.4738 0001581 266.5890  42.3346 15.50957010  5381
STARLINK-36341          
1 67918U 26036Q   26079.59295843  .00067730  00000+0  11491-2 0  9997
2 67918  42.9987 185.0824 0007681 283.3734  76.6269 15.50579671  5379
STARLINK-36663          
1 67919U 26036R   26079.58335648 -.01921044  00000+0 -37837-1 0  9996
2 67919  42.9999 184.1677 0001328 278.0892  63.6022 15.49563413  5397
STARLINK-36375          
1 67920U 26036S   26079.58335648 -.01848353  00000+0 -40206-1 0  9993
2 67920  43.0002 184.5526 0001337 292.2728 253.5768 15.46626071  5393
STARLINK-36405          
1 67921U 26036T   26079.59040720  .00066355  00000+0  11269-2 0  9998
2 67921  43.0008 185.0606 0002908 283.0928  76.9608 15.50586255  5372
