CCSDS_OMM_VERS = 2.0
CREATION_DATE  = 
ORIGINATOR     = 

OBJECT_NAME    = STARLINK-36847
OBJECT_ID      = 2026-036G
CENTER_NAME    = EARTH
REF_FRAME      = TEME
TIME_SYSTEM    = UTC
MEAN_ELEMENT_THEORY = SGP/SGP4

EPOCH          = 2026-03-20T14:00:01.999872
MEAN_MOTION    = 15.50588991
ECCENTRICITY   = .00013134
INCLINATION    = 43.0002
RA_OF_ASC_NODE = 184.8043
ARG_OF_PERICENTER = 305.4852
MEAN_ANOMALY   = 138.6095

EPHEMERIS_TYPE = 0
CLASSIFICATION_TYPE = U
NORAD_CAT_ID   = 67910
ELEMENT_SET_NO = 999
REV_AT_EPOCH   = 539
BSTAR          = -.12279428E-2
MEAN_MOTION_DOT = -.71747E-3
MEAN_MOTION_DDOT = 0

CCSDS_OMM_VERS = 2.0
CREATION_DATE  = 
ORIGINATOR     = 

OBJECT_NAME    = STARLINK-36736
OBJECT_ID      = 2026-036H
CENTER_NAME    = EARTH
REF_FRAME      = TEME
TIME_SYSTEM    = UTC
MEAN_ELEMENT_THEORY = SGP/SGP4

EPOCH          = 2026-03-20T12:00:00.999648
MEAN_MOTION    = 15.48265097
ECCENTRICITY   = .00011287
INCLINATION    = 42.9995
RA_OF_ASC_NODE = 184.7334
ARG_OF_PERICENTER = 286.3327
MEAN_ANOMALY   = 278.3522

EPHEMERIS_TYPE = 0
CLASSIFICATION_TYPE = U
NORAD_CAT_ID   = 67911
ELEMENT_SET_NO = 999
REV_AT_EPOCH   = 538
BSTAR          = -.39404638E-1
MEAN_MOTION_DOT = -.1911517E-1
MEAN_MOTION_DDOT = 0

CCSDS_OMM_VERS = 2.0
CREATION_DATE  = 
ORIGINATOR     = 

OBJECT_NAME    = STARLINK-36676
OBJECT_ID      = 2026-036J
CENTER_NAME    = EARTH
REF_FRAME      = TEME
TIME_SYSTEM    = UTC
MEAN_ELEMENT_THEORY = SGP/SGP4

EPOCH          = 2026-03-20T14:00:01.999872
MEAN_MOTION    = 15.50589481
ECCENTRICITY   = .00017932
INCLINATION    = 43.0003
RA_OF_ASC_NODE = 184.3696
ARG_OF_PERICENTER = 265.2529
MEAN_ANOMALY   = 354.5796

EPHEMERIS_TYPE = 0
CLASSIFICATION_TYPE = U
NORAD_CAT_ID   = 67912
ELEMENT_SET_NO = 999
REV_AT_EPOCH   = 539
BSTAR          = -.12404555E-2
MEAN_MOTION_DOT = -.72472E-3
MEAN_MOTION_DDOT = 0

CCSDS_OMM_VERS = 2.0
CREATION_DATE  = 
ORIGINATOR     = 

OBJECT_NAME    = STARLINK-36690
OBJECT_ID      = 2026-036K
CENTER_NAME    = EARTH
REF_FRAME      = TEME
TIME_SYSTEM    = UTC
MEAN_ELEMENT_THEORY = SGP/SGP4

EPOCH          = 2026-03-20T14:00:01.999872
MEAN_MOTION    = 15.50575994
ECCENTRICITY   = .00013994
INCLINATION    = 43.0004
RA_OF_ASC_NODE = 184.3563
ARG_OF_PERICENTER = 283.3724
MEAN_ANOMALY   = 341.8747

EPHEMERIS_TYPE = 0
CLASSIFICATION_TYPE = U
NORAD_CAT_ID   = 67913
ELEMENT_SET_NO = 999
REV_AT_EPOCH   = 539
BSTAR          = -.5537088E-5
MEAN_MOTION_DOT = -.666E-5
MEAN_MOTION_DDOT = 0

CCSDS_OMM_VERS = 2.0
CREATION_DATE  = 
ORIGINATOR     = 

OBJECT_NAME    = STARLINK-36724
OBJECT_ID      = 2026-036L
CENTER_NAME    = EARTH
REF_FRAME      = TEME
TIME_SYSTEM    = UTC
MEAN_ELEMENT_THEORY = SGP/SGP4

EPOCH          = 2026-03-20T12:00:00.999648
MEAN_MOTION    = 15.50530209
ECCENTRICITY   = .00012916
INCLINATION    = 43.0003
RA_OF_ASC_NODE = 184.7960
ARG_OF_PERICENTER = 287.0992
MEAN_ANOMALY   = 251.3456

EPHEMERIS_TYPE = 0
CLASSIFICATION_TYPE = U
NORAD_CAT_ID   = 67914
ELEMENT_SET_NO = 999
REV_AT_EPOCH   = 538
BSTAR          = .60352937E-3
MEAN_MOTION_DOT = .35162E-3
MEAN_MOTION_DDOT = 0

CCSDS_OMM_VERS = 2.0
CREATION_DATE  = 
ORIGINATOR     = 

OBJECT_NAME    = STARLINK-36723
OBJECT_ID      = 2026-036M
CENTER_NAME    = EARTH
REF_FRAME      = TEME
TIME_SYSTEM    = UTC
MEAN_ELEMENT_THEORY = SGP/SGP4

EPOCH          = 2026-03-20T12:00:00.999648
MEAN_MOTION    = 15.50852891
ECCENTRICITY   = .00014847
INCLINATION    = 42.9999
RA_OF_ASC_NODE = 184.7181
ARG_OF_PERICENTER = 281.3986
MEAN_ANOMALY   = 289.0948

EPHEMERIS_TYPE = 0
CLASSIFICATION_TYPE = U
NORAD_CAT_ID   = 67915
ELEMENT_SET_NO = 999
REV_AT_EPOCH   = 538
BSTAR          = -.14592753E-1
MEAN_MOTION_DOT = -.794102E-2
MEAN_MOTION_DDOT = 0

CCSDS_OMM_VERS = 2.0
CREATION_DATE  = 
ORIGINATOR     = 

OBJECT_NAME    = STARLINK-36721
OBJECT_ID      = 2026-036N
CENTER_NAME    = EARTH
REF_FRAME      = TEME
TIME_SYSTEM    = UTC
MEAN_ELEMENT_THEORY = SGP/SGP4

EPOCH          = 2026-03-20T14:00:01.999872
MEAN_MOTION    = 15.50208070
ECCENTRICITY   = .00015668
INCLINATION    = 43.0001
RA_OF_ASC_NODE = 184.2062
ARG_OF_PERICENTER = 266.4130
MEAN_ANOMALY   = 59.3637

EPHEMERIS_TYPE = 0
CLASSIFICATION_TYPE = U
NORAD_CAT_ID   = 67916
ELEMENT_SET_NO = 999
REV_AT_EPOCH   = 539
BSTAR          = -.37452794E-1
MEAN_MOTION_DOT = -.1943438E-1
MEAN_MOTION_DDOT = 0

CCSDS_OMM_VERS = 2.0
CREATION_DATE  = 
ORIGINATOR     = 

OBJECT_NAME    = STARLINK-36722
OBJECT_ID      = 2026-036P
CENTER_NAME    = EARTH
REF_FRAME      = TEME
TIME_SYSTEM    = UTC
MEAN_ELEMENT_THEORY = SGP/SGP4

EPOCH          = 2026-03-20T12:00:00.999648
MEAN_MOTION    = 15.50957010
ECCENTRICITY   = .0001581
INCLINATION    = 42.9999
RA_OF_ASC_NODE = 184.4738
ARG_OF_PERICENTER = 266.5890
MEAN_ANOMALY   = 42.3346

EPHEMERIS_TYPE = 0
CLASSIFICATION_TYPE = U
NORAD_CAT_ID   = 67917
ELEMENT_SET_NO = 999
REV_AT_EPOCH   = 538
BSTAR          = -.25764277E-1
MEAN_MOTION_DOT = -.1376478E-1
MEAN_MOTION_DDOT = 0

CCSDS_OMM_VERS = 2.0
CREATION_DATE  = 
ORIGINATOR     = 

OBJECT_NAME    = STARLINK-36341
OBJECT_ID      = 2026-036Q
CENTER_NAME    = EARTH
REF_FRAME      = TEME
TIME_SYSTEM    = UTC
MEAN_ELEMENT_THEORY = SGP/SGP4

EPOCH          = 2026-03-20T14:13:51.608352
MEAN_MOTION    = 15.50579671
ECCENTRICITY   = .00076819
INCLINATION    = 42.9987
RA_OF_ASC_NODE = 185.0824
ARG_OF_PERICENTER = 283.3734
MEAN_ANOMALY   = 76.6269

EPHEMERIS_TYPE = 0
CLASSIFICATION_TYPE = U
NORAD_CAT_ID   = 67918
ELEMENT_SET_NO = 999
REV_AT_EPOCH   = 537
BSTAR          = .11491454E-2
MEAN_MOTION_DOT = .6773E-3
MEAN_MOTION_DDOT = 0

CCSDS_OMM_VERS = 2.0
CREATION_DATE  = 
ORIGINATOR     = 

OBJECT_NAME    = STARLINK-36663
OBJECT_ID      = 2026-036R
CENTER_NAME    = EARTH
REF_FRAME      = TEME
TIME_SYSTEM    = UTC
MEAN_ELEMENT_THEORY = SGP/SGP4

EPOCH          = 2026-03-20T14:00:01.999872
MEAN_MOTION    = 15.49563413
ECCENTRICITY   = .00013287
INCLINATION    = 42.9999
RA_OF_ASC_NODE = 184.1677
ARG_OF_PERICENTER = 278.0892
MEAN_ANOMALY   = 63.6022

EPHEMERIS_TYPE = 0
CLASSIFICATION_TYPE = U
NORAD_CAT_ID   = 67919
ELEMENT_SET_NO = 999
REV_AT_EPOCH   = 539
BSTAR          = -.3783697E-1
MEAN_MOTION_DOT = -.1921044E-1
MEAN_MOTION_DDOT = 0

CCSDS_OMM_VERS = 2.0
CREATION_DATE  = 
ORIGINATOR     = 

OBJECT_NAME    = STARLINK-36375
OBJECT_ID      = 2026-036S
CENTER_NAME    = EARTH
REF_FRAME      = TEME
TIME_SYSTEM    = UTC
MEAN_ELEMENT_THEORY = SGP/SGP4

EPOCH          = 2026-03-20T14:00:01.999872
MEAN_MOTION    = 15.46626071
ECCENTRICITY   = .00013376
INCLINATION    = 43.0002
RA_OF_ASC_NODE = 184.5526
ARG_OF_PERICENTER = 292.2728
MEAN_ANOMALY   = 253.5768

EPHEMERIS_TYPE = 0
CLASSIFICATION_TYPE = U
NORAD_CAT_ID   = 67920
ELEMENT_SET_NO = 999
REV_AT_EPOCH   = 539
BSTAR          = -.40206142E-1
MEAN_MOTION_DOT = -.1848353E-1
MEAN_MOTION_DDOT = 0

CCSDS_OMM_VERS = 2.0
CREATION_DATE  = 
ORIGINATOR     = 

OBJECT_NAME    = STARLINK-36405
OBJECT_ID      = 2026-036T
CENTER_NAME    = EARTH
REF_FRAME      = TEME
TIME_SYSTEM    = UTC
MEAN_ELEMENT_THEORY = SGP/SGP4

EPOCH          = 2026-03-20T14:10:11.182080
MEAN_MOTION    = 15.50586255
ECCENTRICITY   = .00029087
INCLINATION    = 43.0008
RA_OF_ASC_NODE = 185.0606
ARG_OF_PERICENTER = 283.0928
MEAN_ANOMALY   = 76.9608

EPHEMERIS_TYPE = 0
CLASSIFICATION_TYPE = U
NORAD_CAT_ID   = 67921
ELEMENT_SET_NO = 999
REV_AT_EPOCH   = 537
BSTAR          = .11269201E-2
MEAN_MOTION_DOT = .66355E-3
MEAN_MOTION_DDOT = 0

